TRANSPORTER-12 OBJECT BT
1 62674U 25009BT  26068.71416991  .00013824  00000+0  51029-3 0  9998
2 62674  97.4094 151.5992 0003682 313.5044  46.5889 15.27872239121360
STARLINK-35985          
1 66815U 25278AA  26068.19404176  .00030303  00000+0  11062-2 0  9994
2 66815  43.0024 117.1271 0001005 232.4448 127.6312 15.27580568 16347
